OBJECT_NAME,OBJECT_ID,EPOCH,MEAN_MOTION,ECCENTRICITY,INCLINATION,RA_OF_ASC_NODE,ARG_OF_PERICENTER,MEAN_ANOMALY,EPHEMERIS_TYPE,CLASSIFICATION_TYPE,NORAD_CAT_ID,ELEMENT_SET_NO,REV_AT_EPOCH,BSTAR,MEAN_MOTION_DOT,MEAN_MOTION_DDOT
CUTE-1 (CO-55),2003-031E,2026-06-25T12:53:31.892352,14.24340467,.0010043,98.6736,184.9911,154.4508,205.7169,0,U,27844,999,19286,.14177E-3,.284E-5,0
CUBESAT XI-IV (CO-57),2003-031J,2026-06-25T12:42:56.718432,14.23624963,.0009568,98.6767,184.6898,172.4685,187.6639,0,U,27848,999,19256,.12557E-3,.243E-5,0
CUBESAT XI-V,2005-043F,2026-06-25T08:27:17.571744,14.72651786,.0014207,98.2992,332.1457,174.6504,185.4857,0,U,28895,999,10295,.22378E-3,.1375E-4,0
CUTE-1.7+APD II (CO-65),2008-021C,2026-06-25T20:47:33.211104,15.09530347,.0008896,97.8275,158.4656,12.7911,347.3541,0,U,32785,999,98650,.346E-3,.5488E-4,0
CANX-2,2008-021H,2026-06-25T20:40:18.549120,15.05677026,.0010928,97.8637,156.8079,25.7474,334.4294,0,U,32790,999,98611,.27836E-3,.3962E-4,0
SEEDS II (CO-66),2008-021J,2026-06-25T13:21:24.158304,15.33017433,.0000373,97.7517,174.8550,231.0753,129.0455,0,U,32791,999,98857,.71096E-3,.22634E-3,0
SWISSCUBE,2009-051B,2026-06-25T17:17:57.094080,14.62496515,.0006581,98.4029,84.7576,174.6664,185.4608,0,U,35932,999,89040,.19487E-3,.938E-5,0
BEESAT-1,2009-051C,2026-06-25T17:37:56.312256,14.61733092,.0004779,98.3958,84.3893,186.3683,173.7458,0,U,35933,999,89043,.16647E-3,.781E-5,0
ITUPSAT1,2009-051E,2026-06-25T17:35:36.047040,14.60452303,.0006692,98.4042,83.5704,203.3862,156.7034,0,U,35935,999,88998,.15762E-3,.715E-5,0
TISAT 1,2010-035E,2026-06-25T19:19:06.529152,15.32016545,.0002553,98.0701,124.1198,153.3468,206.7903,0,U,36799,999,86902,.80171E-3,.24751E-3,0
AEROCUBE 4.5A,2012-048K,2026-06-25T20:17:21.086016,16.07219943,.0018741,64.6195,354.9441,248.5035,111.4135,0,U,38767,999,37404,.1324E-2,.1066821E-1,.65548E-3
STRAND-1,2013-009E,2026-06-25T11:31:32.234880,14.37167817,.0008182,98.3924,356.5105,198.4624,161.6268,0,U,39090,999,69825,.10767E-3,.278E-5,0
BRITE-AUSTRIA,2013-009F,2026-06-25T11:55:14.511072,14.36545099,.0009543,98.3998,355.7268,209.3907,150.6744,0,U,39091,999,69824,.70556E-4,.165E-5,0
NEE-01 PEGASO,2013-018B,2026-06-25T08:54:48.053664,14.93700411,.001354,98.1231,320.7925,133.4455,226.7893,0,U,39151,999,71192,.23719E-3,.2452E-4,0
POPACS 2,2013-055E,2026-06-24T14:59:18.141792,14.91388796,.04165769,80.9904,135.6783,169.8894,191.1047,0,U,39269,999,66432,.2467304E-3,.14675E-3,0
POPACS 3,2013-055F,2026-06-25T13:41:54.488256,14.56266835,.0551275,81.0001,220.0969,44.4725,319.9373,0,U,39270,999,63977,.27691E-3,.11739E-3,0
ZACUBE-1 (TSHEPISOSAT),2013-066B,2026-06-25T20:56:17.824128,15.01232202,.0041996,97.8048,139.2539,218.0640,141.7615,0,U,39417,999,68203,.2687E-3,.3451E-4,0
WNISAT-1,2013-066H,2026-06-25T20:35:29.956704,14.58077927,.0162499,97.7210,325.3992,204.1306,155.2222,0,U,39423,999,66799,.20163E-3,.1063E-4,0
TRITON-1,2013-066M,2026-06-25T19:18:32.215392,14.81730743,.0089004,97.8241,86.4152,205.3777,154.3052,0,U,39427,999,67536,.19101E-3,.1555E-4,0
GOMX-1,2013-066Q,2026-06-25T20:00:32.560416,14.69486911,.0129859,97.6487,16.7507,50.1209,311.1332,0,U,39430,999,67118,.25537E-3,.1672E-4,0
CUBEBUG-2 (LO-74),2013-066AA,2026-06-25T20:06:56.471040,14.93829236,.0057564,97.8903,125.8528,0.5259,359.6011,0,U,39440,999,67828,.41819E-3,.4524E-4,0
NEE-02 KRYSAOR,2013-066AB,2026-06-25T13:19:35.190624,14.86653035,.0067228,97.8891,115.7100,43.3544,317.2932,0,U,39441,999,67744,.28387E-3,.2568E-4,0
FUNCUBE-1 (AO-73),2013-066AE,2026-06-25T20:56:49.257312,15.09583656,.0036539,97.8271,148.5000,171.4630,188.7228,0,U,39444,999,68097,.50757E-3,.8216E-4,0
UWE-3,2013-066AG,2026-06-25T20:06:32.092416,14.97092153,.0046808,97.8708,132.9703,291.8607,67.7640,0,U,39446,999,67887,.38106E-3,.4431E-4,0
BRITE-CA1 (TORONTO),2014-033L,2026-06-25T19:15:45.885024,14.72689009,.0077301,97.9748,305.5721,248.9383,110.3546,0,U,40020,999,64348,.12849E-3,.804E-5,0
DUCHIFAT-1,2014-033M,2026-06-25T17:10:11.457696,15.66313669,.0001518,98.0450,237.0839,101.6443,258.4986,0,U,40021,999,65708,.13462E-2,.141113E-2,0
NANOSATC-BR1,2014-033Q,2026-06-25T15:12:13.016736,15.31712804,.0005085,98.0720,209.7702,143.3230,216.8358,0,U,40024,999,65527,.72838E-3,.22266E-3,0
QB50P1,2014-033R,2026-06-25T20:23:06.497664,15.18382181,.0008695,98.0964,188.6029,184.5667,175.5487,0,U,40025,999,65434,.49283E-3,.1007E-3,0
QB50P2,2014-033Y,2026-06-25T11:41:22.384032,15.15257209,.0008726,98.0752,173.8841,138.5808,221.6085,0,U,40032,999,65392,.44421E-3,.8291E-4,0
PERSEUS-M2,2014-033AD,2026-06-25T19:52:19.827264,14.95540459,.0009956,97.9972,127.5440,272.8398,87.1683,0,U,40037,999,65207,.19303E-3,.208E-4,0
