CUTE-1 (CO-55)          
1 27844U 03031E   26176.53717468  .00000284  00000+0  14177-3 0  9991
2 27844  98.6736 184.9911 0010043 154.4508 205.7169 14.24340467192865
CUBESAT XI-IV (CO-57)   
1 27848U 03031J   26176.52982313  .00000243  00000+0  12557-3 0  9992
2 27848  98.6767 184.6898 0009568 172.4685 187.6639 14.23624963192562
CUBESAT XI-V            
1 28895U 05043F   26176.35228671  .00001375  00000+0  22378-3 0  9990
2 28895  98.2992 332.1457 0014207 174.6504 185.4857 14.72651786102951
CUTE-1.7+APD II (CO-65) 
1 32785U 08021C   26176.86635661  .00005488  00000+0  34600-3 0  9999
2 32785  97.8275 158.4656 0008896  12.7911 347.3541 15.09530347986504
CANX-2                  
1 32790U 08021H   26176.86132580  .00003962  00000+0  27836-3 0  9995
2 32790  97.8637 156.8079 0010928  25.7474 334.4294 15.05677026986111
SEEDS II (CO-66)        
1 32791U 08021J   26176.55652961  .00022634  00000+0  71096-3 0  9996
2 32791  97.7517 174.8550 0000373 231.0753 129.0455 15.33017433988577
SWISSCUBE               
1 35932U 09051B   26176.72079970  .00000938  00000+0  19487-3 0  9991
2 35932  98.4029  84.7576 0006581 174.6664 185.4608 14.62496515890403
BEESAT-1                
1 35933U 09051C   26176.73467954  .00000781  00000+0  16647-3 0  9997
2 35933  98.3958  84.3893 0004779 186.3683 173.7458 14.61733092890439
ITUPSAT1                
1 35935U 09051E   26176.73305610  .00000715  00000+0  15762-3 0  9993
2 35935  98.4042  83.5704 0006692 203.3862 156.7034 14.60452303889984
TISAT 1                 
1 36799U 10035E   26176.80493668  .00024751  00000+0  80171-3 0  9997
2 36799  98.0701 124.1198 0002553 153.3468 206.7903 15.32016545869026
AEROCUBE 4.5A           
1 38767U 12048K   26176.84538294  .01066821  65548-3  13240-2 0  9998
2 38767  64.6195 354.9441 0018741 248.5035 111.4135 16.07219943374048
STRAND-1                
1 39090U 13009E   26176.48023420  .00000278  00000+0  10767-3 0  9999
2 39090  98.3924 356.5105 0008182 198.4624 161.6268 14.37167817698251
BRITE-AUSTRIA           
1 39091U 13009F   26176.49669573  .00000165  00000+0  70556-4 0  9994
2 39091  98.3998 355.7268 0009543 209.3907 150.6744 14.36545099698249
NEE-01 PEGASO           
1 39151U 13018B   26176.37138951  .00002452  00000+0  23719-3 0  9998
2 39151  98.1231 320.7925 0013540 133.4455 226.7893 14.93700411711928
POPACS 2                
1 39269U 13055E   26175.62451553  .00014675  00000+0  24673-3 0  9992
2 39269  80.9904 135.6783 0416576 169.8894 191.1047 14.91388796664328
POPACS 3                
1 39270U 13055F   26176.57076954  .00011739  00000+0  27691-3 0  9998
2 39270  81.0001 220.0969 0551275  44.4725 319.9373 14.56266835639775
ZACUBE-1 (TSHEPISOSAT)  
1 39417U 13066B   26176.87242852  .00003451  00000+0  26870-3 0  9998
2 39417  97.8048 139.2539 0041996 218.0640 141.7615 15.01232202682036
WNISAT-1                
1 39423U 13066H   26176.85798561  .00001063  00000+0  20163-3 0  9992
2 39423  97.7210 325.3992 0162499 204.1306 155.2222 14.58077927667995
TRITON-1                
1 39427U 13066M   26176.80453953  .00001555  00000+0  19101-3 0  9990
2 39427  97.8241  86.4152 0089004 205.3777 154.3052 14.81730743675361
GOMX-1                  
1 39430U 13066Q   26176.83371019  .00001672  00000+0  25537-3 0  9999
2 39430  97.6487  16.7507 0129859  50.1209 311.1332 14.69486911671185
CUBEBUG-2 (LO-74)       
1 39440U 13066AA  26176.83815360  .00004524  00000+0  41819-3 0  9992
2 39440  97.8903 125.8528 0057564   0.5259 359.6011 14.93829236678280
NEE-02 KRYSAOR          
1 39441U 13066AB  26176.55526841  .00002568  00000+0  28387-3 0  9996
2 39441  97.8891 115.7100 0067228  43.3544 317.2932 14.86653035677444
FUNCUBE-1 (AO-73)       
1 39444U 13066AE  26176.87279233  .00008216  00000+0  50757-3 0  9996
2 39444  97.8271 148.5000 0036539 171.4630 188.7228 15.09583656680970
UWE-3                   
1 39446U 13066AG  26176.83787144  .00004431  00000+0  38106-3 0  9998
2 39446  97.8708 132.9703 0046808 291.8607  67.7640 14.97092153678878
BRITE-CA1 (TORONTO)     
1 40020U 14033L   26176.80261441  .00000804  00000+0  12849-3 0  9993
2 40020  97.9748 305.5721 0077301 248.9383 110.3546 14.72689009643481
DUCHIFAT-1              
1 40021U 14033M   26176.71541039  .00141113  00000+0  13462-2 0  9998
2 40021  98.0450 237.0839 0001518 101.6443 258.4986 15.66313669657085
NANOSATC-BR1            
1 40024U 14033Q   26176.63348399  .00022266  00000+0  72838-3 0  9996
2 40024  98.0720 209.7702 0005085 143.3230 216.8358 15.31712804655279
QB50P1                  
1 40025U 14033R   26176.84938076  .00010070  00000+0  49283-3 0  9995
2 40025  98.0964 188.6029 0008695 184.5667 175.5487 15.18382181654345
QB50P2                  
1 40032U 14033Y   26176.48706463  .00008291  00000+0  44421-3 0  9997
2 40032  98.0752 173.8841 0008726 138.5808 221.6085 15.15257209653926
PERSEUS-M2              
1 40037U 14033AD  26176.82800726  .00002080  00000+0  19303-3 0  9998
2 40037  97.9972 127.5440 0009956 272.8398  87.1683 14.95540459652079
